[{"OBJECT_NAME":"STARLINK-2019","OBJECT_ID":"2021-012X","EPOCH":"2026-03-09T22:00:01.999584","MEAN_MOTION":15.57979117,"ECCENTRICITY":0.00041465,"INCLINATION":53.0464,"RA_OF_ASC_NODE":301.7175,"ARG_OF_PERICENTER":110.3422,"MEAN_ANOMALY":110.359,"EPHEMERIS_TYPE":0,"CLASSIFICATION_TYPE":"U","NORAD_CAT_ID":47641,"ELEMENT_SET_NO":999,"REV_AT_EPOCH":591,"BSTAR":0.0015842101,"MEAN_MOTION_DOT":0.00122178,"MEAN_MOTION_DDOT":0},{"OBJECT_NAME":"STARLINK-36706","OBJECT_ID":"2026-022K","EPOCH":"2026-03-09T22:00:01.999584","MEAN_MOTION":15.67261304,"ECCENTRICITY":0.00015605,"INCLINATION":97.285,"RA_OF_ASC_NODE":102.9026,"ARG_OF_PERICENTER":67.2602,"MEAN_ANOMALY":325.5954,"EPHEMERIS_TYPE":0,"CLASSIFICATION_TYPE":"U","NORAD_CAT_ID":67657,"ELEMENT_SET_NO":999,"REV_AT_EPOCH":608,"BSTAR":-0.020198201,"MEAN_MOTION_DOT":-0.019182,"MEAN_MOTION_DDOT":0}]
